{
  "type": "FeatureCollection",
  "features": [
    {
      "type": "Feature",
      "properties": {
        "norad_id": 30290,
        "name": "FENGYUN 1C DEB",
        "group": "fengyun-1c-debris",
        "lat": -36.7717775192062,
        "lon": 104.40546455337183,
        "alt_km": 647.5932816437125,
        "timestamp": "2025-12-16T17:51:11.206526+00:00",
        "meta_object_name": "FENGYUN 1C DEB",
        "meta_object_id": "1999-025ZB",
        "meta_epoch": "2025-12-14T05:55:57.277344",
        "meta_mean_motion": 14.75050469,
        "meta_eccentricity": 0.00164071,
        "meta_inclination": 102.6205,
        "meta_ra_of_asc_node": 90.8918,
        "meta_arg_of_pericenter": 43.8907,
        "meta_mean_anomaly": 346.652,
        "meta_ephemeris_type": 0,
        "meta_classification_type": "U",
        "meta_norad_cat_id": 30290,
        "meta_element_set_no": 999,
        "meta_rev_at_epoch": 97901,
        "meta_bstar": 0.0051872561,
        "meta_mean_motion_dot": 0.00035114,
        "meta_mean_motion_ddot": 0,
        "tle_line1": "1 30290U 99025ZB  25348.24719071  .00035114  00000+0  51873-2 0  9991",
        "tle_line2": "2 30290 102.6205  90.8918 0016407  43.8907 346.6520 14.75050469979019"
      },
      "geometry": {
        "type": "Point",
        "coordinates": [
          104.40546455337183,
          -36.7717775192062
        ]
      }
    },
    {
      "type": "Feature",
      "properties": {
        "norad_id": 30291,
        "name": "FENGYUN 1C DEB",
        "group": "fengyun-1c-debris",
        "lat": 53.2389148101153,
        "lon": 68.78718119673178,
        "alt_km": 741.6377785702798,
        "timestamp": "2025-12-16T17:51:11.206537+00:00",
        "meta_object_name": "FENGYUN 1C DEB",
        "meta_object_id": "1999-025ZC",
        "meta_epoch": "2025-12-15T04:01:09.501312",
        "meta_mean_motion": 14.55302907,
        "meta_eccentricity": 0.01115698,
        "meta_inclination": 97.2327,
        "meta_ra_of_asc_node": 237.6336,
        "meta_arg_of_pericenter": 11.5247,
        "meta_mean_anomaly": 139.4132,
        "meta_ephemeris_type": 0,
        "meta_classification_type": "U",
        "meta_norad_cat_id": 30291,
        "meta_element_set_no": 999,
        "meta_rev_at_epoch": 97743,
        "meta_bstar": 0.0017944969,
        "meta_mean_motion_dot": 8.424e-05,
        "meta_mean_motion_ddot": 0,
        "tle_line1": "1 30291U 99025ZC  25349.16747108  .00008424  00000+0  17945-2 0  9992",
        "tle_line2": "2 30291  97.2327 237.6336 0111569  11.5247 139.4132 14.55302907977439"
      },
      "geometry": {
        "type": "Point",
        "coordinates": [
          68.78718119673178,
          53.2389148101153
        ]
      }
    },
    {
      "type": "Feature",
      "properties": {
        "norad_id": 30293,
        "name": "FENGYUN 1C DEB",
        "group": "fengyun-1c-debris",
        "lat": -67.7280329196475,
        "lon": -154.48624447344753,
        "alt_km": 790.3054672429835,
        "timestamp": "2025-12-16T17:51:11.206547+00:00",
        "meta_object_name": "FENGYUN 1C DEB",
        "meta_object_id": "1999-025ZE",
        "meta_epoch": "2025-12-14T18:42:03.945312",
        "meta_mean_motion": 14.48958771,
        "meta_eccentricity": 0.00767605,
        "meta_inclination": 99.255,
        "meta_ra_of_asc_node": 179.9,
        "meta_arg_of_pericenter": 108.6567,
        "meta_mean_anomaly": 19.445,
        "meta_ephemeris_type": 0,
        "meta_classification_type": "U",
        "meta_norad_cat_id": 30293,
        "meta_element_set_no": 999,
        "meta_rev_at_epoch": 99006,
        "meta_bstar": 0.00073810894,
        "meta_mean_motion_dot": 2.849e-05,
        "meta_mean_motion_ddot": 0,
        "tle_line1": "1 30293U 99025ZE  25348.77921233  .00002849  00000+0  73811-3 0  9993",
        "tle_line2": "2 30293  99.2550 179.9000 0076760 108.6567  19.4450 14.48958771990065"
      },
      "geometry": {
        "type": "Point",
        "coordinates": [
          -154.48624447344753,
          -67.7280329196475
        ]
      }
    },
    {
      "type": "Feature",
      "properties": {
        "norad_id": 30294,
        "name": "FENGYUN 1C DEB",
        "group": "fengyun-1c-debris",
        "lat": 12.033560498142306,
        "lon": -22.93404742988242,
        "alt_km": 736.3642426860679,
        "timestamp": "2025-12-16T17:51:11.206559+00:00",
        "meta_object_name": "FENGYUN 1C DEB",
        "meta_object_id": "1999-025ZF",
        "meta_epoch": "2025-12-15T21:51:56.694240",
        "meta_mean_motion": 14.34960974,
        "meta_eccentricity": 0.01973796,
        "meta_inclination": 98.3557,
        "meta_ra_of_asc_node": 338.0548,
        "meta_arg_of_pericenter": 300.163,
        "meta_mean_anomaly": 90.2629,
        "meta_ephemeris_type": 0,
        "meta_classification_type": "U",
        "meta_norad_cat_id": 30294,
        "meta_element_set_no": 999,
        "meta_rev_at_epoch": 98582,
        "meta_bstar": 0.00033520098,
        "meta_mean_motion_dot": 1.138e-05,
        "meta_mean_motion_ddot": 0,
        "tle_line1": "1 30294U 99025ZF  25349.91107285  .00001138  00000+0  33520-3 0  9997",
        "tle_line2": "2 30294  98.3557 338.0548 0197379 300.1630  90.2629 14.34960974985824"
      },
      "geometry": {
        "type": "Point",
        "coordinates": [
          -22.93404742988242,
          12.033560498142306
        ]
      }
    },
    {
      "type": "Feature",
      "properties": {
        "norad_id": 30295,
        "name": "FENGYUN 1C DEB",
        "group": "fengyun-1c-debris",
        "lat": 8.532090129421476,
        "lon": -165.64279718853118,
        "alt_km": 821.6999684982402,
        "timestamp": "2025-12-16T17:51:11.206570+00:00",
        "meta_object_name": "FENGYUN 1C DEB",
        "meta_object_id": "1999-025ZG",
        "meta_epoch": "2025-12-15T13:07:00.625728",
        "meta_mean_motion": 14.2504621,
        "meta_eccentricity": 0.00944631,
        "meta_inclination": 98.508,
        "meta_ra_of_asc_node": 11.9095,
        "meta_arg_of_pericenter": 74.3716,
        "meta_mean_anomaly": 76.7388,
        "meta_ephemeris_type": 0,
        "meta_classification_type": "U",
        "meta_norad_cat_id": 30295,
        "meta_element_set_no": 999,
        "meta_rev_at_epoch": 98216,
        "meta_bstar": 0.00016165651,
        "meta_mean_motion_dot": 3.55e-06,
        "meta_mean_motion_ddot": 0,
        "tle_line1": "1 30295U 99025ZG  25349.54653502  .00000355  00000+0  16166-3 0  9992",
        "tle_line2": "2 30295  98.5080  11.9095 0094463  74.3716  76.7388 14.25046210982160"
      },
      "geometry": {
        "type": "Point",
        "coordinates": [
          -165.64279718853118,
          8.532090129421476
        ]
      }
    },
    {
      "type": "Feature",
      "properties": {
        "norad_id": 30297,
        "name": "FENGYUN 1C DEB",
        "group": "fengyun-1c-debris",
        "lat": 60.215459200775264,
        "lon": -73.42078054164573,
        "alt_km": 607.4451757874931,
        "timestamp": "2025-12-16T17:51:11.206580+00:00",
        "meta_object_name": "FENGYUN 1C DEB",
        "meta_object_id": "1999-025ZJ",
        "meta_epoch": "2025-12-15T15:19:30.961056",
        "meta_mean_motion": 14.21830595,
        "meta_eccentricity": 0.03796176,
        "meta_inclination": 98.8112,
        "meta_ra_of_asc_node": 301.1964,
        "meta_arg_of_pericenter": 107.2646,
        "meta_mean_anomaly": 62.5674,
        "meta_ephemeris_type": 0,
        "meta_classification_type": "U",
        "meta_norad_cat_id": 30297,
        "meta_element_set_no": 999,
        "meta_rev_at_epoch": 95193,
        "meta_bstar": 0.00076700111,
        "meta_mean_motion_dot": 3.491e-05,
        "meta_mean_motion_ddot": 0,
        "tle_line1": "1 30297U 99025ZJ  25349.63855279  .00003491  00000+0  76700-3 0  9993",
        "tle_line2": "2 30297  98.8112 301.1964 0379617 107.2646  62.5674 14.21830595951930"
      },
      "geometry": {
        "type": "Point",
        "coordinates": [
          -73.42078054164573,
          60.215459200775264
        ]
      }
    },
    {
      "type": "Feature",
      "properties": {
        "norad_id": 30298,
        "name": "FENGYUN 1C DEB",
        "group": "fengyun-1c-debris",
        "lat": 75.75051364942863,
        "lon": -59.626194275597754,
        "alt_km": 784.7210018629812,
        "timestamp": "2025-12-16T17:51:11.206590+00:00",
        "meta_object_name": "FENGYUN 1C DEB",
        "meta_object_id": "1999-025ZK",
        "meta_epoch": "2025-12-15T19:57:24.084864",
        "meta_mean_motion": 14.19963398,
        "meta_eccentricity": 0.00483438,
        "meta_inclination": 99.002,
        "meta_ra_of_asc_node": 80.8225,
        "meta_arg_of_pericenter": 119.4807,
        "meta_mean_anomaly": 0.5153,
        "meta_ephemeris_type": 0,
        "meta_classification_type": "U",
        "meta_norad_cat_id": 30298,
        "meta_element_set_no": 999,
        "meta_rev_at_epoch": 96878,
        "meta_bstar": 0.0013026762,
        "meta_mean_motion_dot": 2.756e-05,
        "meta_mean_motion_ddot": 0,
        "tle_line1": "1 30298U 99025ZK  25349.83152876  .00002756  00000+0  13027-2 0  9994",
        "tle_line2": "2 30298  99.0020  80.8225 0048343 119.4807   0.5153 14.19963398968786"
      },
      "geometry": {
        "type": "Point",
        "coordinates": [
          -59.626194275597754,
          75.75051364942863
        ]
      }
    }
  ]
}